IRIDIUM 36 [-]          
1 24967U 97056C   23245.83129765  .00000608  00000+0  20118-3 0  9990
2 24967  86.3913  87.3038 0001998  82.6342 277.5082 14.36379142358390
IRIDIUM 39 [-]          
1 25042U 97069D   23245.77186547  .00000819  00000+0  21799-3 0  9993
2 25042  86.3933 130.9631 0017580 332.7656  27.2623 14.47333008354392
IRIDIUM 38 [-]          
1 25043U 97069E   23245.86121062  .00000612  00000+0  20043-3 0  9997
2 25043  86.4011 147.7904 0004285  90.8145 269.3543 14.36860850352108
IRIDIUM 42 [-]          
1 25077U 97077A   23245.78295721  .00000628  00000+0  21302-3 0  9994
2 25077  86.4022 153.1906 0002840  86.2837 273.8684 14.35179595347447
IRIDIUM 44 [-]          
1 25078U 97077B   23245.81154802  .00000628  00000+0  19740-3 0  9996
2 25078  86.3984 136.8781 0003376  53.1187 307.0320 14.38960912349701
IRIDIUM 45 [-]          
1 25104U 97082A   23245.78340989  .00020862  00000+0  13821-2 0  9996
2 25104  86.3828 356.7001 0182566 201.2320 158.1268 14.94464945353663
IRIDIUM 24 [-]          
1 25105U 97082B   23245.83655260  .00000775  00000+0  23633-3 0  9998
2 25105  86.3970 356.9350 0013677  77.6352 282.6377 14.40706767349107
IRIDIUM 51 [-]          
1 25262U 98018A   23245.81261616  .00027337  00000+0  15543-2 0  9991
2 25262  86.3986   7.3250 0169784 157.4429 203.4386 15.01248013348010
